QIANFAN-147             
1 69106U 26108C   26159.98823083 -.01904458  00000+0 -11366+1 0  9992
2 69106  89.0113  23.1299 0021880 132.1322 228.1727 14.11001569  3184
QIANFAN-148             
1 69107U 26108D   26160.05173640 -.01882782  00000+0 -10960+1 0  9994
2 69107  89.0112  23.1204 0019139 132.9176 227.3620 14.12348657  3196
QIANFAN-149             
1 69108U 26108E   26160.04830165 -.01883434  00000+0 -10875+1 0  9996
2 69108  89.0115  23.1204 0019134 137.6686 222.5980 14.12789051  3196
QIANFAN-150             
1 69109U 26108F   26160.03965233 -.01998996  00000+0 -11340+1 0  9999
2 69109  89.0117  23.1200 0016104 143.1246 217.1052 14.14016203  3197
QIANFAN-151             
1 69110U 26108G   26159.89157145 -.01869518  00000+0 -10496+1 0  9996
2 69110  89.0115  23.1340 0017467 144.7220 215.5127 14.14300885  3179
QIANFAN-152             
1 69111U 26108H   26160.02740000 -.01969302  00000+0 -10911+1 0  9996
2 69111  89.0108  23.1169 0014212 153.7104 206.4808 14.15246250  3190
QIANFAN-153             
1 69112U 26108J   26160.02139077 -.01641978  00000+0 -93091+0 0  9998
2 69112  89.0111  23.1159 0018331 150.0804 210.1435 14.13890541  3191
QIANFAN-154             
1 69113U 26108K   26159.94391684 -.01918520  00000+0 -10571+1 0  9995
2 69113  89.0116  23.1234 0014823 150.3978 209.8052 14.15440524  3181
QIANFAN-155             
1 69114U 26108L   26160.01787278 -.01851283  00000+0 -10300+1 0  9996
2 69114  89.0115  23.1163 0016666 145.3037 214.9241 14.14761041  3196
QIANFAN-156             
1 69115U 26108M   26160.00834870 -.01867400  00000+0 -10166+1 0  9995
2 69115  89.0118  23.1154 0013862 152.4195 207.7732 14.15992405  3195
QIANFAN-157             
1 69116U 26108N   26159.98074845 -.01757925  00000+0 -95411+0 0  9994
2 69116  89.0115  23.1106 0012673 148.5646 211.6303 14.16574241  3199
QIANFAN-158             
1 69117U 26108P   26160.00177556 -.02077458  00000+0 -10993+1 0  9993
2 69117  89.0116  23.1138 0016552 164.5951 195.5745 14.17928176  3194
QIANFAN-159             
1 69118U 26108Q   26159.99694631 -.02065190  00000+0 -10741+1 0  9999
2 69118  89.0112  23.1124 0016059 159.1762 201.0085 14.18833186  3195
QIANFAN-160             
1 69119U 26108R   26159.99221320 -.01939842  00000+0 -10060+1 0  9998
2 69119  89.0126  23.1132 0012173 157.7843 202.3877 14.18756166  3192
QIANFAN-161             
1 69120U 26108S   26159.98848652 -.01992239  00000+0 -10331+1 0  9992
2 69120  89.0123  23.1119 0013687 160.7448 199.4262 14.18859156  3199
QIANFAN-162             
1 69121U 26108T   26159.98663084 -.02113788  00000+0 -10811+1 0  9995
2 69121  89.0114  23.1118 0017247 148.5171 211.7055 14.19817573  3198
SMILE                   
1 69123U 26109A   26144.65318427 -.00001976  00000+0 -42379-3 0  9994
2 69123  70.0007 229.2745 0009123 259.5159 100.4951 14.57062785   802
STARLINK-37726          
1 69124U 26110A   26160.50003471  .00082948  00000+0  15135-2 0  9994
2 69124  97.2856 356.6480 0001568  90.5242   9.4677 15.49137034  4425
STARLINK-37722          
1 69125U 26110B   26160.50003471  .00104890  00000+0  19106-2 0  9998
2 69125  97.2850 356.8086 0001650  66.6062  52.3942 15.49099685  4476
STARLINK-37715          
1 69126U 26110C   26160.50003471 -.02447383  00000+0 -36921-1 0  9993
2 69126  97.2846 356.8919 0001802  94.7193 210.4655 15.58393232  4421
STARLINK-37706          
1 69127U 26110D   26160.50003471 -.02451256  00000+0 -36481-1 0  9999
2 69127  97.2845 356.8962 0001734  93.0295 221.3884 15.58757156  4422
STARLINK-37723          
1 69128U 26110E   26160.50003471 -.02439852  00000+0 -35823-1 0  9997
2 69128  97.2849 356.9011 0001629  90.3102 234.2407 15.59095953  4428
STARLINK-37720          
1 69129U 26110F   26160.50003471  .00113286  00000+0  20580-2 0  9999
2 69129  97.2864 356.6704 0001647  85.3935  63.5213 15.49144182  4426
STARLINK-37533          
1 69130U 26110G   26160.50003471 -.02470673  00000+0 -34872-1 0  9999
2 69130  97.2846 356.9126 0001548  88.1691 263.5401 15.60175799  4421
STARLINK-37530          
1 69131U 26110H   26160.50003471 -.02461818  00000+0 -34266-1 0  9998
2 69131  97.2846 356.9173 0001491  83.8048 277.2362 15.60524145  4420
STARLINK-37660          
1 69132U 26110J   26160.50003471 -.01804121  00000+0 -31341-1 0  9997
2 69132  97.2849 356.8440 0001888  72.9148 119.9861 15.54086983  4422
STARLINK-37633          
1 69133U 26110K   26160.50003471 -.02436830  00000+0 -40838-1 0  9998
2 69133  97.2848 356.8560 0002455  85.4581 135.5088 15.55564577  4422
STARLINK-37361          
1 69134U 26110L   26160.50003471 -.02487357  00000+0 -33252-1 0  9991
2 69134  97.2848 356.9280 0001410  72.9595 314.2263 15.61606430  4422
STARLINK-37372          
1 69135U 26110M   26160.50003471 -.03208058  00000+0 -59015-1 0  9997
2 69135  97.2851 356.8710 0001398 130.7368 119.4127 15.52839995  4428
